ONEWEB-0043             
1 45149U 20008U   23310.80352507 -.00000558  00000+0 -16338-2 0  9994
2 45149  87.8925 225.6047 0002251  67.9601 292.1765 13.10376750183321
ONEWEB-0044             
1 45150U 20008V   23310.83276600  .00000710  00000+0  19964-2 0  9994
2 45150  87.8924 225.5967 0002059  68.3982 291.7365 13.10377822183620
ONEWEB-0045             
1 45151U 20008W   23310.75808737 -.00000482  00000+0 -13948-2 0  9992
2 45151  87.9000 210.4756 0001619  73.4325 286.6981 13.11418593185446
ONEWEB-0047             
1 45152U 20008X   23310.82463831  .00000403  00000+0  11170-2 0  9999
2 45152  87.8926 225.5994 0001816  69.9345 290.1978 13.10383060183347
ONEWEB-0048             
1 45153U 20008Y   23311.04883680  .00000221  00000+0  59623-3 0  9997
2 45153  87.8930 225.5659 0001887  70.5689 289.5642 13.10378354183753
ONEWEB-0049             
1 45154U 20008Z   23311.12683492  .00000193  00000+0  51524-3 0  9996
2 45154  87.8933 225.5216 0001902  74.4435 285.6902 13.10378749183996
ONEWEB-0051             
1 45155U 20008AA  23311.13796537 -.00000495  00000+0 -14335-2 0  9998
2 45155  87.9005 210.4348 0001481  74.2046 285.9246 13.11413668186959
ONEWEB-0052             
1 45156U 20008AB  23310.81814112  .00000150  00000+0  39393-3 0  9991
2 45156  87.8934 225.5670 0002488  79.9009 280.2399 13.10378493183087
